{
    "links": {
        "self": "http://www.neowsapp.com/rest/v1/neo/3545511?api_key=iIulBulltgU6a56xZRHN4H3l9WmuAYTsLGpBGhQ2"
    },
    "id": "3545511",
    "neo_reference_id": "3545511",
    "name": "(2010 RZ11)",
    "designation": "2010 RZ11",
    "nasa_jpl_url": "http://ssd.jpl.nasa.gov/sbdb.cgi?sstr=3545511",
    "absolute_magnitude_h": 26.6,
    "estimated_diameter": {
        "kilometers": {
            "estimated_diameter_min": 0.0127219879,
            "estimated_diameter_max": 0.0284472297
        },
        "meters": {
            "estimated_diameter_min": 12.7219878539,
            "estimated_diameter_max": 28.4472296503
        },
        "miles": {
            "estimated_diameter_min": 0.0079050743,
            "estimated_diameter_max": 0.0176762835
        },
        "feet": {
            "estimated_diameter_min": 41.7388066307,
            "estimated_diameter_max": 93.330808926
        }
    },
    "is_potentially_hazardous_asteroid": false,
    "close_approach_data": [
        {
            "close_approach_date": "2010-08-27",
            "close_approach_date_full": "2010-Aug-27 18:31",
            "epoch_date_close_approach": 1282933860000,
            "relative_velocity": {
                "kilometers_per_second": "14.2374242409",
                "kilometers_per_hour": "51254.7272672684",
                "miles_per_hour": "31847.6942844869"
            },
            "miss_distance": {
                "astronomical": "0.0061040425",
                "lunar": "2.3744725325",
                "kilometers": "913151.756389475",
                "miles": "567406.190445755"
            },
            "orbiting_body": "Earth"
        },
        {
            "close_approach_date": "2010-08-28",
            "close_approach_date_full": "2010-Aug-28 01:39",
            "epoch_date_close_approach": 1282959540000,
            "relative_velocity": {
                "kilometers_per_second": "14.5370276816",
                "kilometers_per_hour": "52333.2996536293",
                "miles_per_hour": "32517.8772208898"
            },
            "miss_distance": {
                "astronomical": "0.0064544015",
                "lunar": "2.5107621835",
                "kilometers": "965564.716524805",
                "miles": "599974.093680109"
            },
            "orbiting_body": "Moon"
        }
    ],
    "orbital_data": {
        "orbit_id": "7",
        "orbit_determination_date": "2017-04-06 08:56:53",
        "first_observation_date": "2010-09-03",
        "last_observation_date": "2010-09-08",
        "data_arc_in_days": 5,
        "observations_used": 19,
        "orbit_uncertainty": "9",
        "minimum_orbit_intersection": ".00586642",
        "jupiter_tisserand_invariant": "3.253",
        "epoch_osculation": "2455443.5",
        "eccentricity": ".6352212068290658",
        "semi_major_axis": "2.349292897867372",
        "inclination": "1.282793634391097",
        "ascending_node_longitude": "349.0449385865583",
        "orbital_period": "1315.237477512105",
        "perihelion_distance": ".8569722280891066",
        "perihelion_argument": "292.4897152691411",
        "aphelion_distance": "3.841613567645637",
        "perihelion_time": "2455399.130056689996",
        "mean_anomaly": "12.14471140361375",
        "mean_motion": ".2737148280483717",
        "equinox": "J2000",
        "orbit_class": {
            "orbit_class_type": "APO",
            "orbit_class_description": "Near-Earth asteroid orbits which cross the Earth’s orbit similar to that of 1862 Apollo",
            "orbit_class_range": "a (semi-major axis) > 1.0 AU; q (perihelion) < 1.017 AU"
        }
    },
    "is_sentry_object": false
}